KUIPER-00533            
1 69605U 26140P   26188.46493528  .00019363  00000+0  51627-3 0  9990
2 69605  51.8780 300.6222 0007815 296.8587  63.1601 15.38138607  4359
KUIPER-00534            
1 69606U 26140Q   26188.44764161  .00021554  00000+0  56285-3 0  9993
2 69606  51.8818 300.5184 0013386 237.6888 122.2804 15.38651070  4351
KUIPER-00537            
1 69607U 26140R   26188.41672454 -.00011135  00000+0 -31822-3 0  9990
2 69607  51.8816 301.2152 0010174  30.8841 249.4669 15.34361735  4013
KUIPER-00538            
1 69608U 26140S   26188.47288025  .00020069  00000+0  54413-3 0  9999
2 69608  51.8808 300.6804 0006078 312.9647  47.0830 15.37606341  4355
KUIPER-00540            
1 69609U 26140T   26188.48096183  .00014986  00000+0  41938-3 0  9992
2 69609  51.8812 300.7338 0006153 358.2744   1.8221 15.36843088  4351
KUIPER-00541            
1 69610U 26140U   26188.46529381  .00017601  00000+0  46827-3 0  9992
2 69610  51.8814 300.6346 0006622 291.7301  68.2981 15.38283396  4356
KUIPER-00542            
1 69611U 26140V   26188.46360524  .00017040  00000+0  45387-3 0  9992
2 69611  51.8783 300.6142 0007856 273.5963  86.4125 15.38264894  4352
KUIPER-00543            
1 69612U 26140W   26188.48488020  .00016589  00000+0  46478-3 0  9996
2 69612  51.8788 300.7497 0007513  11.3158 348.7996 15.36715957  4355
KUIPER-00544            
1 69613U 26140X   26188.46736944  .00034220  00000+0  90542-3 0  9999
2 69613  51.8777 300.6389 0006453 289.4670  70.5619 15.38053424  4350
KUIPER-00546            
1 69614U 26140Y   26188.44877763  .00020927  00000+0  54395-3 0  9998
2 69614  51.8782 300.5212 0014289 233.3223 126.6451 15.38800284  4350
KUIPER-00547            
1 69615U 26140Z   26188.46020095  .00020211  00000+0  54441-3 0  9997
2 69615  51.8824 300.6021 0011766 264.5782  95.3863 15.37757338  4359
KUIPER-00549            
1 69616U 26140AA  26188.47788324  .00015819  00000+0  43584-3 0  9999
2 69616  51.8783 300.7061 0007189 349.0865  10.9965 15.37279545  4359
KUIPER-00550            
1 69617U 26140AB  26188.41672454 -.00006411  00000+0 -18421-3 0  9992
2 69617  51.8805 301.2885 0007555  24.0828 216.9052 15.33383916  3584
KUIPER-00551            
1 69618U 26140AC  26188.51924574  .00011923  00000+0  32214-3 0  9995
2 69618  51.8793 300.2412 0012408 249.2492 110.7166 15.38104053  4369
KUIPER-00554            
1 69619U 26140AD  26188.45864095  .00057001  00000+0  15006-2 0  9996
2 69619  51.8782 300.5831 0009680 245.4673 114.5305 15.37950269  4356
KUIPER-00555            
1 69620U 26140AE  26188.45608413  .00017315  00000+0  46449-3 0  9998
2 69620  51.8814 300.5716 0011457 249.1340 110.8421 15.38000128  4352
KUIPER-00556            
1 69621U 26140AF  26188.45661186  .00020495  00000+0  54406-3 0  9990
2 69621  51.8803 300.5748 0011847 237.2140 122.7706 15.38197827  4356
KUIPER-00557            
1 69622U 26140AG  26188.46246985  .00018262  00000+0  49861-3 0  9996
2 69622  51.8806 300.6138 0009884 268.5951  91.3904 15.37427827  4355
KUIPER-00560            
1 69623U 26140AH  26188.45869433 -.00051188  00000+0 -13157-2 0  9999
2 69623  51.8783 300.5843 0010853 264.8895  95.0853 15.38642037  4353
KUIPER-00561            
1 69624U 26140AJ  26188.46084858  .00020883  00000+0  54789-3 0  9994
2 69624  51.8819 300.6057 0007712 275.4454  84.5653 15.38585864  4356
KUIPER-00564            
1 69625U 26140AK  26188.41672454 -.00009125  00000+0 -23602-3 0  9993
2 69625  51.8808 300.7850 0009359 267.3987 223.3698 15.37180469  3595
KUIPER-00567            
1 69626U 26140AL  26188.45436351  .00023118  00000+0  60878-3 0  9994
2 69626  51.8783 300.5568 0012559 239.2805 120.6945 15.38359306  4353
KUIPER-00573            
1 69627U 26140AM  26188.46580029  .00024727  00000+0  67314-3 0  9997
2 69627  51.8782 300.6296 0009605 255.6912 104.3008 15.37323236  4352
CENTISPACE-1 GROUP 05 O*
1 69636U 26138J   26188.54483500 -.00000408  00000+0 -12883-3 0  9992
2 69636  55.1385 205.9508 0009041 327.4325  32.6091 14.15844622  2873
VICTUS HAZE PUMA        
1 69646U 26142A   26188.54718028  .00003321  00000+0  15259-3 0  9999
2 69646  97.4473  85.9390 0025221 294.4368  65.4236 15.20811190  2768
