OBJECT_NAME,OBJECT_ID,EPOCH,MEAN_MOTION,ECCENTRICITY,INCLINATION,RA_OF_ASC_NODE,ARG_OF_PERICENTER,MEAN_ANOMALY,EPHEMERIS_TYPE,CLASSIFICATION_TYPE,NORAD_CAT_ID,ELEMENT_SET_NO,REV_AT_EPOCH,BSTAR,MEAN_MOTION_DOT,MEAN_MOTION_DDOT
KUIPER-00533,2026-140P,2026-07-07T11:09:30.408192,15.38138607,.0007815,51.8780,300.6222,296.8587,63.1601,0,U,69605,999,435,.51627E-3,.19363E-3,0
KUIPER-00534,2026-140Q,2026-07-07T10:44:36.235104,15.38651070,.0013386,51.8818,300.5184,237.6888,122.2804,0,U,69606,999,435,.56285E-3,.21554E-3,0
KUIPER-00537,2026-140R,2026-07-07T10:00:05.000256,15.34361735,.0010174,51.8816,301.2152,30.8841,249.4669,0,U,69607,999,401,-.31822E-3,-.11135E-3,0
KUIPER-00538,2026-140S,2026-07-07T11:20:56.853600,15.37606341,.0006078,51.8808,300.6804,312.9647,47.0830,0,U,69608,999,435,.54413E-3,.20069E-3,0
KUIPER-00540,2026-140T,2026-07-07T11:32:35.102112,15.36843088,.0006153,51.8812,300.7338,358.2744,1.8221,0,U,69609,999,435,.41938E-3,.14986E-3,0
KUIPER-00541,2026-140U,2026-07-07T11:10:01.385184,15.38283396,.0006622,51.8814,300.6346,291.7301,68.2981,0,U,69610,999,435,.46827E-3,.17601E-3,0
KUIPER-00542,2026-140V,2026-07-07T11:07:35.492736,15.38264894,.0007856,51.8783,300.6142,273.5963,86.4125,0,U,69611,999,435,.45387E-3,.1704E-3,0
KUIPER-00543,2026-140W,2026-07-07T11:38:13.649280,15.36715957,.0007513,51.8788,300.7497,11.3158,348.7996,0,U,69612,999,435,.46478E-3,.16589E-3,0
KUIPER-00544,2026-140X,2026-07-07T11:13:00.719616,15.38053424,.0006453,51.8777,300.6389,289.4670,70.5619,0,U,69613,999,435,.90542E-3,.3422E-3,0
KUIPER-00546,2026-140Y,2026-07-07T10:46:14.387232,15.38800284,.0014289,51.8782,300.5212,233.3223,126.6451,0,U,69614,999,435,.54395E-3,.20927E-3,0
KUIPER-00547,2026-140Z,2026-07-07T11:02:41.362080,15.37757338,.0011766,51.8824,300.6021,264.5782,95.3863,0,U,69615,999,435,.54441E-3,.20211E-3,0
KUIPER-00549,2026-140AA,2026-07-07T11:28:09.111936,15.37279545,.0007189,51.8783,300.7061,349.0865,10.9965,0,U,69616,999,435,.43584E-3,.15819E-3,0
KUIPER-00550,2026-140AB,2026-07-07T10:00:05.000256,15.33383916,.0007555,51.8805,301.2885,24.0828,216.9052,0,U,69617,999,358,-.18421E-3,-.6411E-4,0
KUIPER-00551,2026-140AC,2026-07-07T12:27:42.831936,15.38104053,.0012408,51.8793,300.2412,249.2492,110.7166,0,U,69618,999,436,.32214E-3,.11923E-3,0
KUIPER-00554,2026-140AD,2026-07-07T11:00:26.578080,15.37950269,.000968,51.8782,300.5831,245.4673,114.5305,0,U,69619,999,435,.15006E-2,.57001E-3,0
KUIPER-00555,2026-140AE,2026-07-07T10:56:45.668832,15.38000128,.0011457,51.8814,300.5716,249.1340,110.8421,0,U,69620,999,435,.46449E-3,.17315E-3,0
KUIPER-00556,2026-140AF,2026-07-07T10:57:31.264704,15.38197827,.0011847,51.8803,300.5748,237.2140,122.7706,0,U,69621,999,435,.54406E-3,.20495E-3,0
KUIPER-00557,2026-140AG,2026-07-07T11:05:57.395040,15.37427827,.0009884,51.8806,300.6138,268.5951,91.3904,0,U,69622,999,435,.49861E-3,.18262E-3,0
KUIPER-00560,2026-140AH,2026-07-07T11:00:31.190112,15.38642037,.0010853,51.8783,300.5843,264.8895,95.0853,0,U,69623,999,435,-.13157E-2,-.51188E-3,0
KUIPER-00561,2026-140AJ,2026-07-07T11:03:37.317312,15.38585864,.0007712,51.8819,300.6057,275.4454,84.5653,0,U,69624,999,435,.54789E-3,.20883E-3,0
KUIPER-00564,2026-140AK,2026-07-07T10:00:05.000256,15.37180469,.0009359,51.8808,300.7850,267.3987,223.3698,0,U,69625,999,359,-.23602E-3,-.9125E-4,0
KUIPER-00567,2026-140AL,2026-07-07T10:54:17.007264,15.38359306,.0012559,51.8783,300.5568,239.2805,120.6945,0,U,69626,999,435,.60878E-3,.23118E-3,0
KUIPER-00573,2026-140AM,2026-07-07T11:10:45.145056,15.37323236,.0009605,51.8782,300.6296,255.6912,104.3008,0,U,69627,999,435,.67314E-3,.24727E-3,0
CENTISPACE-1 GROUP 05 OBJECT J,2026-138J,2026-07-07T13:04:33.744000,14.15844622,.0009041,55.1385,205.9508,327.4325,32.6091,0,U,69636,999,287,-.12883E-3,-.408E-5,0
VICTUS HAZE PUMA,2026-142A,2026-07-07T13:07:56.376192,15.20811190,.0025221,97.4473,85.9390,294.4368,65.4236,0,U,69646,999,276,.15259E-3,.3321E-4,0
